ONEWEB-0196             
1 48218U 21031J   25208.11798173 -.00000040  00000+0 -14333-3 0  9996
2 48218  87.9069 354.3901 0001647  94.2048 265.9270 13.14503625205518
ONEWEB-0183             
1 48219U 21031K   25208.16873769  .00000164  00000+0  40773-3 0  9999
2 48219  87.9065 354.3916 0001719 102.1712 257.9611 13.14502554205620
ONEWEB-0185             
1 48220U 21031L   25207.89040659 -.00000403  00000+0 -11203-2 0  9997
2 48220  87.9060 354.4125 0001419 102.8525 257.2763 13.14502554205515
ONEWEB-0187             
1 48221U 21031M   25207.94658062  .00000132  00000+0  32032-3 0  9998
2 48221  87.9066 354.4479 0001488  93.6693 266.4606 13.14501980205535
ONEWEB-0192             
1 48222U 21031N   25207.91659065  .00000012  00000+0 -23948-5 0  9996
2 48222  87.9064 354.4466 0001814  92.7815 267.3522 13.14503620205449
ONEWEB-0219             
1 48223U 21031P   25208.42881726  .00000748  00000+0  19824-2 0  9995
2 48223  87.9063 354.3176 0001566  96.0194 264.1115 13.14500678205721
ONEWEB-0202             
1 48224U 21031Q   25207.95306360  .00000057  00000+0  11869-3 0  9994
2 48224  87.9063 354.4261 0001780  71.0057 289.1265 13.14504154205633
ONEWEB-0204             
1 48225U 21031R   25207.91103408 -.00000058  00000+0 -19009-3 0  9996
2 48225  87.9047 354.4306 0001775 105.6247 254.5079 13.14503867205522
